IRIDIUM 7               
1 24793U 97020B   25166.43527629  .00000306  00000+0  98842-4 0  9994
2 24793  86.3982 177.6439 0002556  93.3485 266.8004 14.35938452471642
IRIDIUM 5               
1 24795U 97020D   25166.50137340  .00003552  00000+0  28988-3 0  9990
2 24795  86.3884  84.5108 0110246 143.2517 217.6337 14.94344698485210
IRIDIUM 4               
1 24796U 97020E   25166.48946507  .00000295  00000+0  93089-4 0  9997
2 24796  86.3976 174.5027 0002315  92.9051 267.2412 14.36840932472223
IRIDIUM 914             
1 24836U 97030A   25166.56669741  .00000360  00000+0  10615-3 0  9990
2 24836  86.3958 183.0713 0001634 133.3766 226.7570 14.40870818606899
IRIDIUM 16              
1 24841U 97030F   25166.52419622  .00000281  00000+0  85159-4 0  9991
2 24841  86.4051 205.9721 0004519  81.6493 278.5218 14.38714229466764
IRIDIUM 911             
1 24842U 97030G   25166.38849048  .00000437  00000+0  11275-3 0  9995
2 24842  86.4477 204.8009 0016558 102.0395 258.2665 14.47638589474820
IRIDIUM 17              
1 24870U 97034B   25166.44083470  .00000366  00000+0  11493-3 0  9999
2 24870  86.3966 235.4853 0003257  64.7739 295.3796 14.37828181463337
IRIDIUM 920             
1 24871U 97034C   25166.48812610  .00000359  00000+0  10426-3 0  9997
2 24871  86.3990 214.7032 0013940  88.3716 271.9081 14.41533326466330
